STARLINK-5579           
1 55746U 23028F   24307.55262255  .00000952  00000+0  87574-4 0  9990
2 55746  70.0009  45.2730 0002665 267.1607  92.9247 14.98327440 92325
STARLINK-5539           
1 55747U 23028G   24307.56931534  .00000936  00000+0  86189-4 0  9998
2 55747  70.0024  45.3329 0003378 278.3590  81.7186 14.98330453 92321
STARLINK-5580           
1 55748U 23028H   24307.56513854  .00002817  00000+0  24371-3 0  9994
2 55748  70.0010  45.3187 0002601 269.7641  90.3220 14.98338192 92321
STARLINK-5560           
1 55749U 23028J   24307.55679849 -.00000234  00000+0 -11834-4 0  9995
2 55749  70.0023  45.2897 0002828 273.0948  86.9887 14.98322349 92329
STARLINK-5573           
1 55750U 23028K   24307.56096944  .00014795  00000+0  12449-2 0  9993
2 55750  70.0030  45.3041 0003585 263.2583  96.8169 14.98334940 92321
STARLINK-5577           
1 55751U 23028L   24307.57348624 -.00004357  00000+0 -35734-3 0  9998
2 55751  70.0021  45.3511 0002969 261.0154  99.0669 14.98354510 92324
STARLINK-5613           
1 55752U 23028M   24307.53592480  .00001720  00000+0  15192-3 0  9991
2 55752  70.0013  45.2176 0003222 274.3119  85.7672 14.98324633 92322
STARLINK-5617           
1 55753U 23028N   24307.55279024  .00000765  00000+0  71879-4 0  9993
2 55753  70.0012  45.2775 0002849 270.3083  89.7749 14.98325453 92327
STARLINK-5612           
1 55754U 23028P   24307.54427354 -.00000306  00000+0 -17857-4 0  9993
2 55754  70.0004  45.2438 0002869 266.4997  93.5834 14.98331565 92326
STARLINK-5619           
1 55755U 23028Q   24307.59867237 -.00000220  00000+0 -10601-4 0  9992
2 55755  70.0011  45.0263 0003343 265.9542  94.1235 14.98334172 92337
STARLINK-5614           
1 55756U 23028R   24307.59434286 -.00001440  00000+0 -11297-3 0  9993
2 55756  70.0011  45.0198 0002838 264.0719  96.0116 14.98320658 92332
STARLINK-5544           
1 55757U 23028S   24307.54845242 -.00000474  00000+0 -31887-4 0  9991
2 55757  70.0002  45.2589 0003148 267.0994  92.9805 14.98336735 92324
STARLINK-5072           
1 55758U 23028T   24307.54010558  .00000626  00000+0  60235-4 0  9992
2 55758  70.0007  45.2296 0002796 272.4238  87.6600 14.98317073 92322
STARLINK-5081           
1 55759U 23028U   24307.53987510  .00000512  00000+0  50695-4 0  9996
2 55759  70.0013  25.3969 0002933 269.5395  90.5428 14.98333149 92817
STARLINK-5532           
1 55760U 23028V   24307.59016453 -.00001024  00000+0 -78059-4 0  9998
2 55760  70.0015  45.0054 0003703 266.3592  93.7144 14.98326857 92330
STARLINK-5611           
1 55761U 23028W   24307.56926714 -.00001100  00000+0 -84384-4 0  9999
2 55761  70.0011  25.4518 0002454 248.6234 111.4663 14.98329204 92818
STARLINK-5603           
1 55762U 23028X   24307.55656986  .00004846  00000+0  41378-3 0  9993
2 55762  70.0007  25.4062 0002834 264.9003  95.1833 14.98316022 92816
STARLINK-5593           
1 55763U 23028Y   24307.59851026 -.00000257  00000+0 -13710-4 0  9994
2 55763  70.0016  45.0337 0003064 268.1154  91.9654 14.98332460 92335
STARLINK-5499           
1 55764U 23028Z   24307.56074376  .00002360  00000+0  20550-3 0  9991
2 55764  70.0022  25.4236 0002811 270.9747  89.1090 14.98333682 92814
STARLINK-5595           
1 55765U 23028AA  24307.56492500  .00001435  00000+0  12809-3 0  9995
2 55765  70.0016  25.4367 0002794 264.2534  95.8306 14.98319945 92813
STARLINK-5599           
1 55766U 23028AB  24307.54422568 -.00001071  00000+0 -82028-4 0  9990
2 55766  70.0017  25.3624 0003279 273.6456  86.4328 14.98324463 92817
STARLINK-5606           
1 55767U 23028AC  24307.56910510 -.00001023  00000+0 -77978-4 0  9997
2 55767  70.0013  25.4533 0002886 272.5517  87.5312 14.98317253 92817
STARLINK-5583           
1 55768U 23028AD  24307.55239185  .00001002  00000+0  91717-4 0  9991
2 55768  70.0008  25.3940 0002945 271.8229  88.2593 14.98331959 92819
STARLINK-5584           
1 55769U 23028AE  24307.48146814 -.00000373  00000+0 -23466-4 0  9998
2 55769  70.0029  25.5456 0002787 267.9337  92.1503 14.98321494 92804
STARLINK-5557           
1 55770U 23028AF  24307.54402368  .00004048  00000+0  34663-3 0  9997
2 55770  70.0012  25.3622 0002599 263.3747  96.7116 14.98353335 92817
STARLINK-5591           
1 55771U 23028AG  24307.53570885  .00000382  00000+0  39778-4 0  9997
2 55771  70.0019  25.3336 0003259 277.1792  82.8996 14.98323023 92817
STARLINK-5835           
1 55772U 23028AH  24307.58593689 -.00000522  00000+0 -36008-4 0  9991
2 55772  70.0017  25.1083 0002960 271.9414  88.1406 14.98321464 92827
STARLINK-5833           
1 55773U 23028AJ  24307.53586975  .00001254  00000+0  11283-3 0  9995
2 55773  70.0020  25.3342 0002634 258.4608 101.6255 14.98332212 92810
STARLINK-5812           
1 55774U 23028AK  24307.59829105 -.00000888  00000+0 -66633-4 0  9991
2 55774  70.0021  25.1506 0002493 267.7171  92.3703 14.98324082 92824
STARLINK-5809           
1 55775U 23028AL  24307.59411380  .00000138  00000+0  19346-4 0  9999
2 55775  70.0020  25.1359 0002904 259.9895 100.0937 14.98321299 92826
STARLINK-5810           
1 55776U 23028AM  24307.57322450  .00002625  00000+0  22759-3 0  9991
2 55776  70.0016  25.0640 0002560 258.0883 101.9989 14.98347218 92825
STARLINK-5814           
1 55777U 23028AN  24307.58576688 -.00000134  00000+0 -34530-5 0  9994
2 55777  70.0020  25.1082 0002359 261.9934  98.0957 14.98323878 92825
STARLINK-5816           
1 55778U 23028AP  24307.58158887  .00001850  00000+0  16277-3 0  9992
2 55778  70.0010  25.0927 0002329 256.6660 103.4239 14.98332718 92823
STARLINK-5817           
1 55779U 23028AQ  24307.55215012  .00000406  00000+0  41830-4 0  9994
2 55779  70.0028   5.1092 0002883 263.2801  96.8030 14.98329542 93311
STARLINK-5819           
1 55780U 23028AR  24307.57742321 -.00000905  00000+0 -68051-4 0  9996
2 55780  70.0014  25.0770 0002714 269.0443  91.0405 14.98321990 92828
STARLINK-5820           
1 55781U 23028AS  24307.58994527 -.00000956  00000+0 -72338-4 0  9994
2 55781  70.0013  25.1530 0002547 261.7785  98.3085 14.98325278 92822
STARLINK-5826           
1 55782U 23028AT  24307.54817443 -.00003073  00000+0 -25002-3 0  9990
2 55782  70.0029   5.5012 0002477 266.9099  93.1777 14.98313423 93308
STARLINK-5825           
1 55783U 23028AU  24307.54800308  .00000346  00000+0  36762-4 0  9997
2 55783  70.0035   5.5009 0002460 268.7407  91.3470 14.98329150 93301
STARLINK-5797           
1 55784U 23028AV  24307.53146714  .00000551  00000+0  53959-4 0  9996
2 55784  70.0017   5.4437 0002656 268.2843  91.8012 14.98332757 93306
STARLINK-5818           
1 55785U 23028AW  24307.54383196 -.00000532  00000+0 -36837-4 0  9992
2 55785  70.0034   5.4868 0002285 262.4925  97.5975 14.98320905 93302
STARLINK-5823           
1 55786U 23028AX  24307.53134337 -.00002590  00000+0 -20954-3 0  9991
2 55786  70.0033   5.4447 0002442 262.3884  97.6998 14.98296884 93307
STARLINK-5811           
1 55787U 23028AY  24307.53963967 -.00006248  00000+0 -51584-3 0  9998
2 55787  70.0016   5.4709 0002703 262.3935  97.6917 14.98366671 93300
STARLINK-5804           
1 55788U 23028AZ  24307.53548210 -.00000073  00000+0  17071-5 0  9993
2 55788  70.0013   5.4566 0002600 265.6710  94.4152 14.98327147 93303
STARLINK-5815           
1 55789U 23028BA  24307.57719363 -.00001549  00000+0 -12206-3 0  9990
2 55789  70.0011   5.2006 0003046 268.7765  91.3045 14.98328069 93310
STARLINK-5813           
1 55790U 23028BB  24307.58153380 -.00000440  00000+0 -29052-4 0  9991
2 55790  70.0013   5.2192 0003028 268.6953  91.3859 14.98330244 93319
STARLINK-5807           
1 55791U 23028BC  24307.52713675 -.00001426  00000+0 -11175-3 0  9996
2 55791  70.0016   5.4283 0002796 267.9662  92.1177 14.98322589 93298
STARLINK-5856           
1 55914U 23037A   24307.60340976 -.00000336  00000+0 -20339-4 0  9994
2 55914  69.9988 105.3349 0003265 271.9927  88.0858 14.98321686 90467
STARLINK-5859           
1 55915U 23037B   24307.58669963  .00001235  00000+0  11124-3 0  9990
2 55915  69.9993 105.2754 0003088 267.9228  92.1577 14.98334345 90465
STARLINK-5796           
1 55916U 23037C   24307.59922486  .00000127  00000+0  18406-4 0  9994
2 55916  69.9995 105.3191 0002923 271.1720  88.9104 14.98330338 89774
STARLINK-5855           
1 55917U 23037D   24307.55387543  .00084212  00000+0  36448-2 0  9991
2 55917  69.9952  87.6579 0000913  88.6032 271.5243 15.21973522 90551
STARLINK-5867           
1 55918U 23037E   24307.59505208 -.00000385  00000+0 -24505-4 0  9990
2 55918  69.9997 105.3036 0002930 270.2199  89.8625 14.98325582 89777
STARLINK-5871           
1 55919U 23037F   24307.58687025 -.00000137  00000+0 -37038-5 0  9999
2 55919  69.9994 105.2749 0002972 269.2323  90.8496 14.98325469 89770
STARLINK-5862           
1 55920U 23037G   24307.59065967 -.00001101  00000+0 -84494-4 0  9996
2 55920  69.9994  85.4101 0002970 266.9751  93.1068 14.98321124 90261
STARLINK-5861           
1 55921U 23037H   24307.57000666 -.00000060  00000+0  27447-5 0  9998
2 55921  69.9998 105.2160 0002908 268.3669  91.7157 14.98325854 89778
STARLINK-5863           
1 55922U 23037J   24307.57417847  .00000570  00000+0  55529-4 0  9998
2 55922  69.9994 105.2301 0003004 269.5436  90.5378 14.98331987 89771
STARLINK-5854           
1 55923U 23037K   24307.57835514  .00000752  00000+0  70773-4 0  9994
2 55923  70.0006 105.2442 0002953 268.2002  91.8819 14.98328602 89776
STARLINK-5849           
1 55924U 23037L   24307.58647910 -.00000383  00000+0 -24308-4 0  9992
2 55924  69.9997  85.3944 0002976 269.0542  91.0276 14.98328110 90260
STARLINK-5922           
1 55925U 23037M   24307.56584676 -.00007780  00000+0 -64437-3 0  9994
2 55925  69.9992 105.1995 0003628 261.6258  98.4490 14.98362925 89775
STARLINK-5921           
1 55926U 23037N   24307.57815785 -.00003371  00000+0 -27505-3 0  9991
2 55926  70.0001  85.3681 0002953 265.5045  94.5777 14.98304387 90267
